DMSP 5D-3 F16 (USA 172) 
1 28054U 03048A   26192.98587291 -.00000033  00000+0  65583-5 0  9991
2 28054  98.9887 216.9775 0008178  79.1336 305.1741 14.14484863172992
METEOSAT-9 (MSG-2)      
1 28912U 05049B   26192.72683765  .00000120  00000+0  00000+0 0  9995
2 28912   9.4145  53.9209 0002049 357.1028 185.9350  1.00270407  7241
DMSP 5D-3 F17 (USA 191) 
1 29522U 06050A   26192.91861733 -.00000008  00000+0  18200-4 0  9992
2 29522  98.7385 198.9832 0009913 352.4533   7.6490 14.14996041 15921
FENGYUN 3A              
1 32958U 08026A   26192.85749161  .00000016  00000+0  28345-4 0  9996
2 32958  98.6887 133.2298 0009749  60.4614 299.7533 14.19576043938900
GOES 14                 
1 35491U 09033A   26192.80398917 -.00000352  00000+0  00000+0 0  9991
2 35491   1.7505  82.7359 0001876  40.0902 223.4941  1.00099795  6835
DMSP 5D-3 F18 (USA 210) 
1 35951U 09057A   26192.96227970  .00000171  00000+0  11156-3 0  9991
2 35951  98.9053 173.6794 0011033 174.5579 185.5716 14.14910305863099
EWS-G2 (GOES 15)        
1 36411U 10008A   26192.90183788  .00000025  00000+0  00000+0 0  9993
2 36411   1.3427  82.5051 0005190  53.4001 181.9110  1.00268196 59887
COMS 1                  
1 36744U 10032A   26192.34657965 -.00000239  00000+0  00000+0 0  9998
2 36744   4.8643  75.0643 0011264  14.7082 301.5980  0.99168841 51325
FENGYUN 3B              
1 37214U 10059A   26192.99563840  .00000146  00000+0  98652-4 0  9990
2 37214  98.9614 239.1135 0023076 115.3217   2.2999 14.14846730810938
SUOMI NPP               
1 37849U 11061A   26192.94013898  .00000023  00000+0  32080-4 0  9993
2 37849  98.7956 133.6478 0000617 235.2698 124.8420 14.19522242761959
METEOSAT-10 (MSG-3)     
1 38552U 12035B   26192.85011719 -.00000008  00000+0  00000+0 0  9993
2 38552   4.7275  60.8953 0001085  18.1594 156.7978  1.00270156 51105
METOP-B                 
1 38771U 12049A   26192.89681976  .00000045  00000+0  40355-4 0  9995
2 38771  98.6491 243.9014 0001053 276.0766  84.0291 14.21445784716773
INSAT-3D                
1 39216U 13038B   26192.80442251 -.00000337  00000+0  00000+0 0  9994
2 39216   1.9868  82.2295 0000505  84.5038 182.0874  1.00270054 47326
FENGYUN 3C              
1 39260U 13052A   26192.92083469  .00000029  00000+0  36021-4 0  9998
2 39260  98.4995 165.6620 0013813 315.9906  44.0169 14.15760361662069
METEOR-M 2              
1 40069U 14037A   26192.92282981  .00000042  00000+0  38546-4 0  9990
2 40069  98.5124 167.7865 0005332 337.5239  22.5704 14.21468527622836
HIMAWARI-8              
1 40267U 14060A   26192.87790485 -.00000271  00000+0  00000+0 0  9997
2 40267   0.0221 306.6640 0001048 222.5270 217.2953  1.00272552 43004
FENGYUN 2G              
1 40367U 14090A   26192.91064514 -.00000300  00000+0  00000+0 0  9996
2 40367   5.6975  72.5150 0004301 152.1387 132.2906  1.00261513 42243
METEOSAT-11 (MSG-4)     
1 40732U 15034A   26192.85193720  .00000062  00000+0  00000+0 0  9990
2 40732   3.2612  70.9557 0002248 352.9573 181.7867  1.00270818  7467
ELEKTRO-L 2             
1 41105U 15074A   26192.41948436 -.00000118  00000+0  00000+0 0  9996
2 41105   6.7510  70.2237 0000888 218.2194 137.3884  1.00272476 38749
SENTINEL-3A             
1 41335U 16011A   26192.90227847  .00000038  00000+0  33781-4 0  9990
2 41335  98.6238 259.9296 0001382  91.2166 268.9173 14.26739165541588
INSAT-3DR               
1 41752U 16054A   26192.89029159 -.00000073  00000+0  00000+0 0  9997
2 41752   0.0611  88.7325 0010640 181.7646  53.8059  1.00271971 36069
HIMAWARI-9              
1 41836U 16064A   26192.87799152  .00000000  00000+0  00000+0 0  9995
2 41836   0.0289  55.5033 0002255 123.3481 207.7688  1.00269999 35450
GOES 16                 
1 41866U 16071A   26192.82938263 -.00000087  00000+0  00000+0 0  9995
2 41866   0.3948  85.5062 0000525  98.5955 299.5179  1.00270880 35354
FENGYUN 4A              
1 41882U 16077A   26192.97544551 -.00000356  00000+0  00000+0 0  9997
2 41882   2.3817  80.0081 0008474 159.1104 165.6915  1.00269932 35178
CYGFM05                 
1 41884U 16078A   26192.92543509  .00016417  00000+0  21398-3 0  9998
2 41884  34.9565  96.6409 0006568   4.5886 355.4898 15.57748731532616
CYGFM04                 
1 41885U 16078B   26192.94436384  .00021646  00000+0  23090-3 0  9994
2 41885  34.9325  62.9216 0004611  47.5229 312.5886 15.62935372532872
CYGFM02                 
1 41886U 16078C   26192.95948331  .00026306  00000+0  24625-3 0  9999
2 41886  34.9407  56.6012 0005333  51.8258 308.2949 15.66185448533058
CYGFM01                 
1 41887U 16078D   26192.90306698  .00016889  00000+0  21423-3 0  9997
2 41887  34.9395  97.6416 0006578 357.8092   2.2603 15.58462573532566
CYGFM08                 
1 41888U 16078E   26192.88275027  .00019716  00000+0  22395-3 0  9997
2 41888  34.9430  76.6836 0006734  33.7189 326.3964 15.61322609532830
CYGFM07                 
1 41890U 16078G   26192.90422708  .00019994  00000+0  22624-3 0  9996
2 41890  34.9448  64.8603 0005049  47.5020 312.6132 15.61431775532861
CYGFM03                 
1 41891U 16078H   26192.93932708  .00019752  00000+0  22362-3 0  9997
2 41891  34.9403  66.5565 0005068  31.7377 328.3653 15.61420390532841
